[
    {
        "Altitude(m)": 591760.5830182427,
        "Argument of Periapsis(deg)": 0.0,
        "Eccentricity": 0.0,
        "Inclination(deg)": 97.0,
        "Latitude(deg)": -82.39101344068817,
        "Longitude(deg)": 26.1134755923528,
        "Mean Anomaly(deg)": 273.1034,
        "RAAN(deg)": 60.0,
        "Satellite Name": "Starlink Shell 3 1744",
        "Satellite Number": 1744,
        "Semi-Major Axis(m)": 6938478.169268562,
        "Time(s)": 0
    },
    {
        "Altitude(m)": 591732.6374111449,
        "Argument of Periapsis(deg)": -0.0003965466804030246,
        "Eccentricity": 0.0,
        "Inclination(deg)": 97.0,
        "Latitude(deg)": -82.12122057405084,
        "Longitude(deg)": 21.928575324269794,
        "Mean Anomaly(deg)": 273.72887619770506,
        "RAAN(deg)": 60.000104334274006,
        "Satellite Name": "Starlink Shell 3 1744",
        "Satellite Number": 1744,
        "Semi-Major Axis(m)": 6938478.169268562,
        "Time(s)": 10
    },
    {
        "Altitude(m)": 591699.6182468405,
        "Argument of Periapsis(deg)": -0.0007930933608060492,
        "Eccentricity": 0.0,
        "Inclination(deg)": 97.0,
        "Latitude(deg)": -81.81352114676112,
        "Longitude(deg)": 18.034542630748643,
        "Mean Anomaly(deg)": 274.3543523954101,
        "RAAN(deg)": 60.00020866854802,
        "Satellite Name": "Starlink Shell 3 1744",
        "Satellite Number": 1744,
        "Semi-Major Axis(m)": 6938478.169268562,
        "Time(s)": 20
    },
    {
        "Altitude(m)": 591661.5388785142,
        "Argument of Periapsis(deg)": -0.001189640041209074,
        "Eccentricity": 0.0,
        "Inclination(deg)": 97.0,
        "Latitude(deg)": -81.47201374646417,
        "Longitude(deg)": 14.432160563127232,
        "Mean Anomaly(deg)": 274.97982859311514,
        "RAAN(deg)": 60.00031300282202,
        "Satellite Name": "Starlink Shell 3 1744",
        "Satellite Number": 1744,
        "Semi-Major Axis(m)": 6938478.169268562,
        "Time(s)": 30
    },
    {
        "Altitude(m)": 591618.4147085545,
        "Argument of Periapsis(deg)": -0.0015861867216120985,
        "Eccentricity": 0.0,
        "Inclination(deg)": 97.0,
        "Latitude(deg)": -81.1005856445306,
        "Longitude(deg)": 11.113238119302071,
        "Mean Anomaly(deg)": 275.6053047908202,
        "RAAN(deg)": 60.000417337096025,
        "Satellite Name": "Starlink Shell 3 1744",
        "Satellite Number": 1744,
        "Semi-Major Axis(m)": 6938478.169268562,
        "Time(s)": 40
    },
    {
        "Altitude(m)": 591570.2631820468,
        "Argument of Periapsis(deg)": -0.0019827334020151234,
        "Eccentricity": 0.0,
        "Inclination(deg)": 97.0,
        "Latitude(deg)": -80.70281793812904,
        "Longitude(deg)": 8.063532131869017,
        "Mean Anomaly(deg)": 276.2307809885253,
        "RAAN(deg)": 60.00052167137004,
        "Satellite Name": "Starlink Shell 3 1744",
        "Satellite Number": 1744,
        "Semi-Major Axis(m)": 6938478.169268562,
        "Time(s)": 50
    },
    {
        "Altitude(m)": 591517.1037794227,
        "Argument of Periapsis(deg)": -0.002379280082418148,
        "Eccentricity": 0.0,
        "Inclination(deg)": 97.0,
        "Latitude(deg)": -80.28193983976567,
        "Longitude(deg)": 5.265200582998258,
        "Mean Anomaly(deg)": 276.8562571862303,
        "RAAN(deg)": 60.00062600564405,
        "Satellite Name": "Starlink Shell 3 1744",
        "Satellite Number": 1744,
        "Semi-Major Axis(m)": 6938478.169268562,
        "Time(s)": 60
    },
    {
        "Altitude(m)": 591458.9580082711,
        "Argument of Periapsis(deg)": -0.002775826762821173,
        "Eccentricity": 0.0,
        "Inclination(deg)": 97.0,
        "Latitude(deg)": -79.84081841742349,
        "Longitude(deg)": 2.698685307520879,
        "Mean Anomaly(deg)": 277.48173338393536,
        "RAAN(deg)": 60.00073033991806,
        "Satellite Name": "Starlink Shell 3 1744",
        "Satellite Number": 1744,
        "Semi-Major Axis(m)": 6938478.169268562,
        "Time(s)": 70
    },
    {
        "Altitude(m)": 591395.8493942271,
        "Argument of Periapsis(deg)": -0.003172373443224197,
        "Eccentricity": 0.0,
        "Inclination(deg)": 97.0,
        "Latitude(deg)": -79.38197135042225,
        "Longitude(deg)": 0.3440515235317664,
        "Mean Anomaly(deg)": 278.1072095816404,
        "RAAN(deg)": 60.00083467419207,
        "Satellite Name": "Starlink Shell 3 1744",
        "Satellite Number": 1744,
        "Semi-Major Axis(m)": 6938478.169268562,
        "Time(s)": 80
    },
    {
        "Altitude(m)": 591327.8034710826,
        "Argument of Periapsis(deg)": -0.0035689201236272223,
        "Eccentricity": 0.0,
        "Inclination(deg)": 97.0,
        "Latitude(deg)": -78.90759291870232,
        "Longitude(deg)": -1.8181230402020445,
        "Mean Anomaly(deg)": 278.73268577934545,
        "RAAN(deg)": 60.00093900846607,
        "Satellite Name": "Starlink Shell 3 1744",
        "Satellite Number": 1744,
        "Semi-Major Axis(m)": 6938478.169268562,
        "Time(s)": 90
    },
    {
        "Altitude(m)": 591254.847769993,
        "Argument of Periapsis(deg)": -0.003965466804030247,
        "Eccentricity": 0.0,
        "Inclination(deg)": 97.0,
        "Latitude(deg)": -78.41958626141403,
        "Longitude(deg)": -3.806205587986576,
        "Mean Anomaly(deg)": 279.3581619770505,
        "RAAN(deg)": 60.00104334274008,
        "Satellite Name": "Starlink Shell 3 1744",
        "Satellite Number": 1744,
        "Semi-Major Axis(m)": 6938478.169268562,
        "Time(s)": 100
    },
    {
        "Altitude(m)": 591177.0118078626,
        "Argument of Periapsis(deg)": -0.004362013484433271,
        "Eccentricity": 0.0,
        "Inclination(deg)": 97.0,
        "Latitude(deg)": -77.91959734525861,
        "Longitude(deg)": -5.637216770171729,
        "Mean Anomaly(deg)": 279.9836381747555,
        "RAAN(deg)": 60.00114767701409,
        "Satellite Name": "Starlink Shell 3 1744",
        "Satellite Number": 1744,
        "Semi-Major Axis(m)": 6938478.169268562,
        "Time(s)": 110
    },
    {
        "Altitude(m)": 591094.3270748644,
        "Argument of Periapsis(deg)": -0.004758560164836296,
        "Eccentricity": 0.0,
        "Inclination(deg)": 97.0,
        "Latitude(deg)": -77.40904789819194,
        "Longitude(deg)": -7.326708059372748,
        "Mean Anomaly(deg)": 280.6091143724605,
        "RAAN(deg)": 60.0012520112881,
        "Satellite Name": "Starlink Shell 3 1744",
        "Satellite Number": 1744,
        "Semi-Major Axis(m)": 6938478.169268562,
        "Time(s)": 120
    },
    {
        "Altitude(m)": 591006.8270211444,
        "Argument of Periapsis(deg)": -0.005155106845239321,
        "Eccentricity": 0.0,
        "Inclination(deg)": 97.0,
        "Latitude(deg)": -76.88916582615724,
        "Longitude(deg)": -8.888749550276705,
        "Mean Anomaly(deg)": 281.23459057016555,
        "RAAN(deg)": 60.00135634556211,
        "Satellite Name": "Starlink Shell 3 1744",
        "Satellite Number": 1744,
        "Semi-Major Axis(m)": 6938478.169268562,
        "Time(s)": 130
    },
    {
        "Altitude(m)": 590914.5470426561,
        "Argument of Periapsis(deg)": -0.005551653525642346,
        "Eccentricity": 0.0,
        "Inclination(deg)": 97.0,
        "Latitude(deg)": -76.36101245146986,
        "Longitude(deg)": -10.335986653013174,
        "Mean Anomaly(deg)": 281.8600667678706,
        "RAAN(deg)": 60.00146067983612,
        "Satellite Name": "Starlink Shell 3 1744",
        "Satellite Number": 1744,
        "Semi-Major Axis(m)": 6938478.169268562,
        "Time(s)": 140
    },
    {
        "Altitude(m)": 590817.5244662196,
        "Argument of Periapsis(deg)": -0.005948200206045371,
        "Eccentricity": 0.0,
        "Inclination(deg)": 97.0,
        "Latitude(deg)": -75.82550641285629,
        "Longitude(deg)": -11.67973302522364,
        "Mean Anomaly(deg)": 282.48554296557575,
        "RAAN(deg)": 60.00156501411012,
        "Satellite Name": "Starlink Shell 3 1744",
        "Satellite Number": 1744,
        "Semi-Major Axis(m)": 6938478.169268562,
        "Time(s)": 150
    },
    {
        "Altitude(m)": 590715.7985336835,
        "Argument of Periapsis(deg)": -0.006344746886448394,
        "Eccentricity": 0.0,
        "Inclination(deg)": 97.0,
        "Latitude(deg)": -75.28344435173095,
        "Longitude(deg)": -12.930081611699856,
        "Mean Anomaly(deg)": 283.1110191632806,
        "RAAN(deg)": 60.001669348384134,
        "Satellite Name": "Starlink Shell 3 1744",
        "Satellite Number": 1744,
        "Semi-Major Axis(m)": 6938478.169268562,
        "Time(s)": 160
    },
    {
        "Altitude(m)": 590609.410385327,
        "Argument of Periapsis(deg)": -0.00674129356685142,
        "Eccentricity": 0.0,
        "Inclination(deg)": 97.0,
        "Latitude(deg)": -74.73551865425017,
        "Longitude(deg)": -14.096022772684778,
        "Mean Anomaly(deg)": 283.7364953609858,
        "RAAN(deg)": 60.00177368265814,
        "Satellite Name": "Starlink Shell 3 1744",
        "Satellite Number": 1744,
        "Semi-Major Axis(m)": 6938478.169268562,
        "Time(s)": 170
    },
    {
        "Altitude(m)": 590498.4030424125,
        "Argument of Periapsis(deg)": -0.007137840247254445,
        "Eccentricity": 0.0,
        "Inclination(deg)": 97.0,
        "Latitude(deg)": -74.18233257799953,
        "Longitude(deg)": -15.185558841231137,
        "Mean Anomaly(deg)": 284.36197155869075,
        "RAAN(deg)": 60.00187801693215,
        "Satellite Name": "Starlink Shell 3 1744",
        "Satellite Number": 1744,
        "Semi-Major Axis(m)": 6938478.169268562,
        "Time(s)": 180
    }
]